CCSDS_OMM_VERS,COMMENT,CREATION_DATE,ORIGINATOR,OBJECT_NAME,OBJECT_ID,CENTER_NAME,REF_FRAME,TIME_SYSTEM,MEAN_ELEMENT_THEORY,EPOCH,MEAN_MOTION,ECCENTRICITY,INCLINATION,RA_OF_ASC_NODE,ARG_OF_PERICENTER,MEAN_ANOMALY,EPHEMERIS_TYPE,CLASSIFICATION_TYPE,NORAD_CAT_ID,ELEMENT_SET_NO,REV_AT_EPOCH,BSTAR,MEAN_MOTION_DOT,MEAN_MOTION_DDOT,SEMIMAJOR_AXIS,PERIOD,APOAPSIS,PERIAPSIS,OBJECT_TYPE,RCS_SIZE,COUNTRY_CODE,LAUNCH_DATE,SITE,DECAY_DATE,DECAYED,FILE,GP_ID,TLE_LINE0,TLE_LINE1,TLE_LINE2,height_km,latitude,longitude,velocity_kms,id
2.0,GENERATED VIA SPACE-TRACK.ORG API,2022-11-30T17:18:05,18 SPCS,STARLINK-1069,2020-001AT,EARTH,TEME,UTC,SGP4,2022-11-30T04:58:39.197568,15.0639068,0.0002014,53.055,273.3427,55.4184,304.6995,0,U,44955,999,16016,5.1108e-06,-2.06e-06,0.0,6925.377,95.593,548.637,545.847,PAYLOAD,LARGE,US,2020-01-07,AFETR,,0,3675646,219172074,0 STARLINK-1069,1 44955U 20001AT  22334.20739812 -.00000206  00000-0  51108-5 0  9995,2 44955  53.0550 273.3427 0002014  55.4184 304.6995 15.06390680160167,553.3880938640805,-22.214660407998647,-80.25544176393413,7.585195374671275,5eed7714096e5900069856a4
2.0,GENERATED VIA SPACE-TRACK.ORG API,2022-11-30T17:18:05,18 SPCS,STARLINK-1088,2020-001BE,EARTH,TEME,UTC,SGP4,2022-11-30T05:41:06.778464,15.06394821,0.0001653,53.0555,273.2266,64.3243,295.7916,0,U,44966,999,16022,3.8065e-05,2.85e-06,0.0,6925.364,95.592,548.374,546.085,PAYLOAD,LARGE,US,2020-01-07,AFETR,,0,3675646,219171825,0 STARLINK-1088,1 44966U 20001BE  22334.23688401  .00000285  00000-0  38065-4 0  9999,2 44966  53.0555 273.2266 0001653  64.3243 295.7916 15.06394821160228,547.8283325217753,6.290727057783643,112.81665361455734,7.589587128143335,5eed7714096e5900069856a5
2.0,GENERATED VIA SPACE-TRACK.ORG API,2022-11-30T17:18:05,18 SPCS,STARLINK-1099,2020-001E,EARTH,TEME,UTC,SGP4,2022-11-30T10:15:45.599040,15.0639762,0.0001723,53.0564,312.3866,61.2355,298.8807,0,U,44918,999,16043,3.3834e-05,2.22e-06,0.0,6925.356,95.592,548.414,546.028,PAYLOAD,LARGE,US,2020-01-07,AFETR,,0,3675646,219171820,0 STARLINK-1099,1 44918U 20001E   22334.42761110  .00000222  00000-0  33834-4 0  9996,2 44918  53.0564 312.3866 0001723  61.2355 298.8807 15.06397620160430,557.0619337673752,-29.073211871370255,-177.8664546668976,7.5823658060541685,5eed7714096e5900069856a6
2.0,GENERATED VIA SPACE-TRACK.ORG API,2022-11-30T07:26:14,18 SPCS,STARLINK-1082,2020-001AA,EARTH,TEME,UTC,SGP4,2022-11-30T04:34:45.853536,15.0638489,0.0001473,53.0531,293.4253,48.8824,311.2292,0,U,44938,999,15993,-0.00014287,-2.408e-05,0.0,6925.395,95.593,548.28,546.24,PAYLOAD,LARGE,US,2020-01-07,AFETR,,0,3674287,219124891,0 STARLINK-1082,1 44938U 20001AA  22334.19080849 -.00002408  00000-0 -14287-3 0  9995,2 44938  53.0531 293.4253 0001473  48.8824 311.2292 15.06384890159935,551.552281120159,-12.940768343396568,162.65419030603937,7.586020601414089,5eed7714096e5900069856a7
2.0,GENERATED VIA SPACE-TRACK.ORG API,2022-11-30T17:18:05,18 SPCS,STARLINK-1068,2019-074BM,EARTH,TEME,UTC,SGP4,2022-11-30T13:30:51.127200,15.06391731,0.000171,53.0539,171.7488,59.4022,300.7136,0,U,44772,999,16833,9.1555e-06,-1.45e-06,0.0,6925.374,95.593,548.423,546.055,PAYLOAD,LARGE,US,2019-11-11,AFETR,,0,3675646,219171055,0 STARLINK-1068,1 44772U 19074BM  22334.56309175 -.00000145  00000-0  91555-5 0  9996,2 44772  53.0539 171.7488 0001710  59.4022 300.7136 15.06391731168335,552.9536895471729,-17.624514947910015,31.27948535906245,7.585007087664144,5eed7714096e5900069856a8
2.0,GENERATED VIA SPACE-TRACK.ORG API,2022-11-30T03:22:20,18 SPCS,STARLINK-1074,2020-001AV,EARTH,TEME,UTC,SGP4,2022-11-29T13:33:44.569152,15.06390764,0.0001652,53.0558,276.2116,67.0382,293.0782,0,U,44957,999,16012,0.00011422,1.42e-05,0.0,6925.377,95.593,548.386,546.098,PAYLOAD,LARGE,US,2020-01-07,AFETR,,0,3673849,219109008,0 STARLINK-1074,1 44957U 20001AV  22333.56509918  .00001420  00000-0  11422-3 0  9998,2 44957  53.0558 276.2116 0001652  67.0382 293.0782 15.06390764160124,550.3703684692719,40.970044284338336,107.46431145734107,7.592215758248996,5eed7714096e5900069856a9
2.0,GENERATED VIA SPACE-TRACK.ORG API,2022-11-30T17:18:05,18 SPCS,STARLINK-1126,2020-001AP,EARTH,TEME,UTC,SGP4,2022-11-30T05:36:50.907456,15.20715335,0.000489,53.0061,269.2798,72.6332,287.5197,0,U,44951,999,16152,0.0012243,0.00027047,0.0,6881.819,94.692,507.049,500.318,PAYLOAD,LARGE,US,2020-01-07,AFETR,,0,3675646,219172574,0 STARLINK-1126,1 44951U 20001AP  22334.23392254  .00027047  00000-0  12243-2 0  9994,2 44951  53.0061 269.2798 0004890  72.6332 287.5197 15.20715335161523,514.0386714557817,-26.7167939093247,135.6876992615211,7.605237294590738,5eed7714096e5900069856aa
2.0,GENERATED VIA SPACE-TRACK.ORG API,2022-11-30T17:18:05,18 SPCS,STARLINK-1086,2020-001BC,EARTH,TEME,UTC,SGP4,2022-11-30T13:06:58.057920,15.06394064,0.0001698,53.0562,271.821,59.9154,300.2003,0,U,44964,999,16027,7.7758e-05,8.77e-06,0.0,6925.367,95.593,548.408,546.056,PAYLOAD,LARGE,US,2020-01-07,AFETR,,0,3675646,219171074,0 STARLINK-1086,1 44964U 20001BC  22334.54650530  .00000877  00000-0  77758-4 0  9992,2 44964  53.0562 271.8210 0001698  59.9154 300.2003 15.06394064160270,564.386438079192,-47.987309132630294,-118.59520008997937,7.578444071759944,5eed7714096e5900069856ab
2.0,GENERATED VIA SPACE-TRACK.ORG API,2022-11-30T17:18:05,18 SPCS,STARLINK-1107,2020-001BL,EARTH,TEME,UTC,SGP4,2022-11-30T06:18:16.551648,15.06384242,0.0001664,53.0549,273.1049,68.9622,291.1545,0,U,44972,999,16023,6.5655e-05,6.96e-06,0.0,6925.397,95.593,548.414,546.109,PAYLOAD,LARGE,US,2020-01-07,AFETR,,0,3675646,219172576,0 STARLINK-1107,1 44972U 20001BL  22334.26269157  .00000696  00000-0  65655-4 0  9993,2 44972  53.0549 273.1049 0001664  68.9622 291.1545 15.06384242160234,547.3435742103866,25.11960960321874,-41.93168592730549,7.592312672562524,5eed7714096e5900069856ac
2.0,GENERATED VIA SPACE-TRACK.ORG API,2022-11-30T17:18:05,18 SPCS,STARLINK-1089,2020-001BF,EARTH,TEME,UTC,SGP4,2022-11-30T12:35:07.534464,15.06389809,0.000188,53.0541,271.919,47.9788,312.1361,0,U,44967,999,16027,1.8044e-05,-1.3e-07,0.0,6925.38,95.593,548.547,545.943,PAYLOAD,LARGE,US,2020-01-07,AFETR,,0,3675646,219172075,0 STARLINK-1089,1 44967U 20001BF  22334.52439276 -.00000013  00000-0  18044-4 0  9991,2 44967  53.0541 271.9190 0001880  47.9788 312.1361 15.06389809160271,549.3608704625158,39.171163623553674,-24.92527768798034,7.5929286111023435,5eed7714096e5900069856ad
2.0,GENERATED VIA SPACE-TRACK.ORG API,2022-11-30T03:22:20,18 SPCS,STARLINK-1171,2020-006U,EARTH,TEME,UTC,SGP4,2022-11-29T18:45:36.475488,15.06400525,0.0001832,53.0547,255.2706,52.346,307.7695,0,U,45062,999,15621,0.00039669,5.632e-05,0.0,6925.347,95.592,548.481,545.943,PAYLOAD,LARGE,US,2020-01-29,AFETR,,0,3673849,219109267,0 STARLINK-1171,1 45062U 20006U   22333.78167217  .00005632  00000-0  39669-3 0  9999,2 45062  53.0547 255.2706 0001832  52.3460 307.7695 15.06400525156214,566.0073741508368,-51.04566093047853,-179.54439490851192,7.577325087062711,5eed7714096e5900069856ae
2.0,GENERATED VIA SPACE-TRACK.ORG API,2021-09-30T04:16:10,18 SPCS,STARLINK-1081,2020-001BA,EARTH,TEME,UTC,SGP4,2021-09-30T03:07:28.345152,16.35847011,0.0008986,53.0419,325.3064,19.5069,345.8793,0,U,44962,999,9684,0.0015747,0.13570187,1.2388e-05,6555.01,88.028,182.766,170.985,PAYLOAD,LARGE,US,2020-01-07,AFETR,2021-09-30,1,3135584,185807634,0 STARLINK-1081,1 44962U 20001BA  21273.13018918  .13570187  12388-4  15747-2 0  9998,2 44962  53.0419 325.3064 0008986  19.5069 345.8793 16.35847011 96845,,,,,5eed7714096e5900069856af
2.0,GENERATED VIA SPACE-TRACK.ORG API,2022-11-30T17:18:05,18 SPCS,STARLINK-1115,2020-001BM,EARTH,TEME,UTC,SGP4,2022-11-30T07:21:58.093632,15.06395969,0.0001798,53.0548,272.9005,83.388,276.7314,0,U,44973,999,16023,-0.00014567,-2.45e-05,0.0,6925.361,95.592,548.471,545.981,PAYLOAD,LARGE,US,2020-01-07,AFETR,,0,3675646,219172323,0 STARLINK-1115,1 44973U 20001BM  22334.30692238 -.00002450  00000-0 -14567-3 0  9996,2 44973  53.0548 272.9005 0001798  83.3880 276.7314 15.06395969160239,547.3941447860116,22.056697585990644,99.89362027101055,7.591734855348921,5eed7714096e5900069856b0
2.0,GENERATED VIA SPACE-TRACK.ORG API,2022-11-30T17:18:05,18 SPCS,STARLINK-1112,2020-001M,EARTH,TEME,UTC,SGP4,2022-11-30T10:59:34.708704,15.06396017,0.0001803,53.0552,312.2223,57.0739,303.0423,0,U,44925,999,15969,5.6495e-05,5.6e-06,0.0,6925.361,95.592,548.474,545.977,PAYLOAD,LARGE,US,2020-01-07,AFETR,,0,3675646,219172318,0 STARLINK-1112,1 44925U 20001M   22334.45804061  .00000560  00000-0  56495-4 0  9993,2 44925  53.0552 312.2223 0001803  57.0739 303.0423 15.06396017159697,549.4021981897176,39.18902610157228,15.106671361438762,7.592876318934968,5eed7714096e5900069856b1
2.0,GENERATED VIA SPACE-TRACK.ORG API,2022-11-30T03:22:20,18 SPCS,STARLINK-1180,2020-006AJ,EARTH,TEME,UTC,SGP4,2022-11-29T17:48:30.391488,15.06397384,0.0001682,53.0546,235.4376,61.7591,298.3568,0,U,45076,999,15648,0.00019656,2.647e-05,0.0,6925.357,95.592,548.386,546.057,PAYLOAD,LARGE,US,2020-01-29,AFETR,,0,3673849,219109019,0 STARLINK-1180,1 45076U 20006AJ  22333.74201842  .00002647  00000-0  19656-3 0  9990,2 45076  53.0546 235.4376 0001682  61.7591 298.3568 15.06397384156484,564.2576636251624,-46.6636992067945,160.4236820366385,7.578273035673588,5eed7714096e5900069856b2
2.0,GENERATED VIA SPACE-TRACK.ORG API,2021-07-29T03:56:10,18 SPCS,STARLINK-1075,2020-001AW,EARTH,TEME,UTC,SGP4,2021-07-29T03:36:00.482112,16.44261095,0.000147,53.0326,273.9075,251.0926,207.3554,0,U,44958,999,8699,0.0014841,0.38719428,1.2474e-05,6532.629,87.577,155.454,153.534,PAYLOAD,LARGE,US,2020-01-07,AFETR,2021-07-29,1,3085010,181661898,0 STARLINK-1075,1 44958U 20001AW  21210.15000558  .38719428  12474-4  14841-2 0  9997,2 44958  53.0326 273.9075 0001470 251.0926 207.3554 16.44261095 86997,,,,,5eed7714096e5900069856b3
